{"fetched_at":"2026-07-20T07:40:27.080Z","source":"https://celestrak.org/NORAD/elements/gp.php?GROUP=qianfan&FORMAT=JSON","constellation":"qianfan","records":[{"OBJECT_NAME":"QIANFAN-116","OBJECT_ID":"2026-075H","EPOCH":"2026-07-19T20:00:07.278912","CLASSIFICATION_TYPE":"U","MEAN_MOTION":13.51015227,"ECCENTRICITY":0.000207,"INCLINATION":88.991,"RA_OF_ASC_NODE":317.647,"ARG_OF_PERICENTER":114.8708,"MEAN_ANOMALY":245.2659,"EPHEMERIS_TYPE":0,"NORAD_CAT_ID":68643,"ELEMENT_SET_NO":999,"REV_AT_EPOCH":1421,"BSTAR":0.00015714,"MEAN_MOTION_DOT":0.00000113,"MEAN_MOTION_DDOT":0},{"OBJECT_NAME":"QIANFAN-117","OBJECT_ID":"2026-075J","EPOCH":"2026-07-19T19:42:20.354688","CLASSIFICATION_TYPE":"U","MEAN_MOTION":13.51013127,"ECCENTRICITY":0.000221,"INCLINATION":88.9915,"RA_OF_ASC_NODE":317.6654,"ARG_OF_PERICENTER":110.7633,"MEAN_ANOMALY":249.3755,"EPHEMERIS_TYPE":0,"NORAD_CAT_ID":68644,"ELEMENT_SET_NO":999,"REV_AT_EPOCH":1421,"BSTAR":0.00013816,"MEAN_MOTION_DOT":0.00000101,"MEAN_MOTION_DDOT":0},{"OBJECT_NAME":"QIANFAN-118","OBJECT_ID":"2026-075K","EPOCH":"2026-07-19T13:23:08.831904","CLASSIFICATION_TYPE":"U","MEAN_MOTION":13.51014907,"ECCENTRICITY":0.00019795,"INCLINATION":88.992,"RA_OF_ASC_NODE":317.7018,"ARG_OF_PERICENTER":103.011,"MEAN_ANOMALY":257.1263,"EPHEMERIS_TYPE":0,"NORAD_CAT_ID":68645,"ELEMENT_SET_NO":999,"REV_AT_EPOCH":1417,"BSTAR":0.00013466663,"MEAN_MOTION_DOT":9.9e-7,"MEAN_MOTION_DDOT":0},{"OBJECT_NAME":"QIANFAN-119","OBJECT_ID":"2026-075L","EPOCH":"2026-07-19T14:34:17.187168","CLASSIFICATION_TYPE":"U","MEAN_MOTION":13.5102118,"ECCENTRICITY":0.00023341,"INCLINATION":88.992,"RA_OF_ASC_NODE":317.6924,"ARG_OF_PERICENTER":111.799,"MEAN_ANOMALY":248.341,"EPHEMERIS_TYPE":0,"NORAD_CAT_ID":68646,"ELEMENT_SET_NO":999,"REV_AT_EPOCH":1418,"BSTAR":0.00013665948,"MEAN_MOTION_DOT":0.000001,"MEAN_MOTION_DDOT":0},{"OBJECT_NAME":"QIANFAN-120","OBJECT_ID":"2026-075M","EPOCH":"2026-07-19T13:05:34.322496","CLASSIFICATION_TYPE":"U","MEAN_MOTION":13.51021707,"ECCENTRICITY":0.00024737,"INCLINATION":88.9921,"RA_OF_ASC_NODE":317.6842,"ARG_OF_PERICENTER":111.4725,"MEAN_ANOMALY":248.669,"EPHEMERIS_TYPE":0,"NORAD_CAT_ID":68647,"ELEMENT_SET_NO":999,"REV_AT_EPOCH":1418,"BSTAR":0.00015565444,"MEAN_MOTION_DOT":0.00000113,"MEAN_MOTION_DDOT":0},{"OBJECT_NAME":"QIANFAN-121","OBJECT_ID":"2026-075N","EPOCH":"2026-07-19T13:40:58.470816","CLASSIFICATION_TYPE":"U","MEAN_MOTION":13.51013709,"ECCENTRICITY":0.00020521,"INCLINATION":88.9919,"RA_OF_ASC_NODE":317.686,"ARG_OF_PERICENTER":103.1667,"MEAN_ANOMALY":256.9713,"EPHEMERIS_TYPE":0,"NORAD_CAT_ID":68648,"ELEMENT_SET_NO":999,"REV_AT_EPOCH":1418,"BSTAR":0.00013968169,"MEAN_MOTION_DOT":0.00000102,"MEAN_MOTION_DDOT":0},{"OBJECT_NAME":"QIANFAN-122","OBJECT_ID":"2026-075P","EPOCH":"2026-07-19T13:29:16.848384","CLASSIFICATION_TYPE":"U","MEAN_MOTION":13.51017356,"ECCENTRICITY":0.00022479,"INCLINATION":88.9918,"RA_OF_ASC_NODE":317.6846,"ARG_OF_PERICENTER":112.5177,"MEAN_ANOMALY":247.6212,"EPHEMERIS_TYPE":0,"NORAD_CAT_ID":68649,"ELEMENT_SET_NO":999,"REV_AT_EPOCH":1417,"BSTAR":0.000117981,"MEAN_MOTION_DOT":8.8e-7,"MEAN_MOTION_DDOT":0},{"OBJECT_NAME":"QIANFAN-123","OBJECT_ID":"2026-075Q","EPOCH":"2026-07-19T14:28:35.836320","CLASSIFICATION_TYPE":"U","MEAN_MOTION":13.51015747,"ECCENTRICITY":0.00023986,"INCLINATION":88.9915,"RA_OF_ASC_NODE":317.6693,"ARG_OF_PERICENTER":116.9496,"MEAN_ANOMALY":243.1901,"EPHEMERIS_TYPE":0,"NORAD_CAT_ID":68650,"ELEMENT_SET_NO":999,"REV_AT_EPOCH":1416,"BSTAR":0.00012159258,"MEAN_MOTION_DOT":9.1e-7,"MEAN_MOTION_DDOT":0},{"OBJECT_NAME":"QIANFAN-124","OBJECT_ID":"2026-075R","EPOCH":"2026-07-19T15:04:05.451168","CLASSIFICATION_TYPE":"U","MEAN_MOTION":13.51016986,"ECCENTRICITY":0.00022749,"INCLINATION":88.9917,"RA_OF_ASC_NODE":317.6766,"ARG_OF_PERICENTER":114.361,"MEAN_ANOMALY":245.7779,"EPHEMERIS_TYPE":0,"NORAD_CAT_ID":68651,"ELEMENT_SET_NO":999,"REV_AT_EPOCH":1419,"BSTAR":0.00011177135,"MEAN_MOTION_DOT":8.4e-7,"MEAN_MOTION_DDOT":0},{"OBJECT_NAME":"QIANFAN-125","OBJECT_ID":"2026-075S","EPOCH":"2026-07-19T13:35:03.505056","CLASSIFICATION_TYPE":"U","MEAN_MOTION":13.51013921,"ECCENTRICITY":0.00020264,"INCLINATION":88.9917,"RA_OF_ASC_NODE":317.685,"ARG_OF_PERICENTER":103.7407,"MEAN_ANOMALY":256.397,"EPHEMERIS_TYPE":0,"NORAD_CAT_ID":68652,"ELEMENT_SET_NO":999,"REV_AT_EPOCH":1418,"BSTAR":0.00013147144,"MEAN_MOTION_DOT":9.7e-7,"MEAN_MOTION_DDOT":0},{"OBJECT_NAME":"QIANFAN-126","OBJECT_ID":"2026-075T","EPOCH":"2026-07-19T13:46:59.786112","CLASSIFICATION_TYPE":"U","MEAN_MOTION":13.51019009,"ECCENTRICITY":0.00024058,"INCLINATION":88.9921,"RA_OF_ASC_NODE":317.6511,"ARG_OF_PERICENTER":116.3,"MEAN_ANOMALY":243.8398,"EPHEMERIS_TYPE":0,"NORAD_CAT_ID":68653,"ELEMENT_SET_NO":999,"REV_AT_EPOCH":1420,"BSTAR":0.00014714205,"MEAN_MOTION_DOT":0.00000107,"MEAN_MOTION_DDOT":0},{"OBJECT_NAME":"QIANFAN-127","OBJECT_ID":"2026-104A","EPOCH":"2026-07-19T05:16:47.250912","CLASSIFICATION_TYPE":"U","MEAN_MOTION":13.53173799,"ECCENTRICITY":0.0010486,"INCLINATION":88.9915,"RA_OF_ASC_NODE":338.1951,"ARG_OF_PERICENTER":13.9333,"MEAN_ANOMALY":346.2106,"EPHEMERIS_TYPE":0,"NORAD_CAT_ID":69073,"ELEMENT_SET_NO":999,"REV_AT_EPOCH":948,"BSTAR":-2.7854,"MEAN_MOTION_DOT":-0.01743515,"MEAN_MOTION_DDOT":0},{"OBJECT_NAME":"QIANFAN-128","OBJECT_ID":"2026-104B","EPOCH":"2026-07-18T04:19:13.992384","CLASSIFICATION_TYPE":"U","MEAN_MOTION":13.49707511,"ECCENTRICITY":0.00096435,"INCLINATION":88.9887,"RA_OF_ASC_NODE":338.335,"ARG_OF_PERICENTER":351.9012,"MEAN_ANOMALY":8.1982,"EPHEMERIS_TYPE":0,"NORAD_CAT_ID":69074,"ELEMENT_SET_NO":999,"REV_AT_EPOCH":932,"BSTAR":-3.3011792,"MEAN_MOTION_DOT":-0.01942531,"MEAN_MOTION_DDOT":0},{"OBJECT_NAME":"QIANFAN-129","OBJECT_ID":"2026-104C","EPOCH":"2026-07-19T18:55:54.326208","CLASSIFICATION_TYPE":"U","MEAN_MOTION":13.57830897,"ECCENTRICITY":0.0009163,"INCLINATION":88.9903,"RA_OF_ASC_NODE":338.1105,"ARG_OF_PERICENTER":2.8079,"MEAN_ANOMALY":357.3126,"EPHEMERIS_TYPE":0,"NORAD_CAT_ID":69075,"ELEMENT_SET_NO":999,"REV_AT_EPOCH":957,"BSTAR":0.00010449,"MEAN_MOTION_DOT":8.7e-7,"MEAN_MOTION_DDOT":0},{"OBJECT_NAME":"QIANFAN-130","OBJECT_ID":"2026-104D","EPOCH":"2026-07-19T19:08:36.069216","CLASSIFICATION_TYPE":"U","MEAN_MOTION":13.5101238,"ECCENTRICITY":0.0001712,"INCLINATION":88.9906,"RA_OF_ASC_NODE":338.1675,"ARG_OF_PERICENTER":106.8551,"MEAN_ANOMALY":253.2788,"EPHEMERIS_TYPE":0,"NORAD_CAT_ID":69076,"ELEMENT_SET_NO":999,"REV_AT_EPOCH":954,"BSTAR":0.000099694,"MEAN_MOTION_DOT":7.6e-7,"MEAN_MOTION_DDOT":0},{"OBJECT_NAME":"QIANFAN-131","OBJECT_ID":"2026-104E","EPOCH":"2026-07-19T07:29:54.841056","CLASSIFICATION_TYPE":"U","MEAN_MOTION":13.52873435,"ECCENTRICITY":0.00125654,"INCLINATION":88.9888,"RA_OF_ASC_NODE":338.1854,"ARG_OF_PERICENTER":6.0188,"MEAN_ANOMALY":354.1113,"EPHEMERIS_TYPE":0,"NORAD_CAT_ID":69077,"ELEMENT_SET_NO":999,"REV_AT_EPOCH":949,"BSTAR":-2.895581,"MEAN_MOTION_DOT":-0.01800367,"MEAN_MOTION_DDOT":0},{"OBJECT_NAME":"QIANFAN-132","OBJECT_ID":"2026-104F","EPOCH":"2026-07-19T21:07:03.861120","CLASSIFICATION_TYPE":"U","MEAN_MOTION":13.5102159,"ECCENTRICITY":0.0001827,"INCLINATION":88.99,"RA_OF_ASC_NODE":338.179,"ARG_OF_PERICENTER":103.1376,"MEAN_ANOMALY":256.9979,"EPHEMERIS_TYPE":0,"NORAD_CAT_ID":69078,"ELEMENT_SET_NO":999,"REV_AT_EPOCH":954,"BSTAR":0.000068417,"MEAN_MOTION_DOT":5.6e-7,"MEAN_MOTION_DDOT":0},{"OBJECT_NAME":"QIANFAN-133","OBJECT_ID":"2026-104G","EPOCH":"2026-07-19T20:35:52.132128","CLASSIFICATION_TYPE":"U","MEAN_MOTION":13.57838678,"ECCENTRICITY":0.0009275,"INCLINATION":88.9903,"RA_OF_ASC_NODE":338.14,"ARG_OF_PERICENTER":355.8132,"MEAN_ANOMALY":4.2944,"EPHEMERIS_TYPE":0,"NORAD_CAT_ID":69079,"ELEMENT_SET_NO":999,"REV_AT_EPOCH":955,"BSTAR":0.00011298,"MEAN_MOTION_DOT":9.4e-7,"MEAN_MOTION_DDOT":0},{"OBJECT_NAME":"QIANFAN-134","OBJECT_ID":"2026-104H","EPOCH":"2026-07-19T18:43:01.281216","CLASSIFICATION_TYPE":"U","MEAN_MOTION":13.57516645,"ECCENTRICITY":0.0009923,"INCLINATION":88.9905,"RA_OF_ASC_NODE":338.1641,"ARG_OF_PERICENTER":350.8379,"MEAN_ANOMALY":9.2593,"EPHEMERIS_TYPE":0,"NORAD_CAT_ID":69080,"ELEMENT_SET_NO":999,"REV_AT_EPOCH":954,"BSTAR":0.000076387,"MEAN_MOTION_DOT":6.7e-7,"MEAN_MOTION_DDOT":0},{"OBJECT_NAME":"QIANFAN-135","OBJECT_ID":"2026-104J","EPOCH":"2026-07-19T16:12:48.192192","CLASSIFICATION_TYPE":"U","MEAN_MOTION":13.54407299,"ECCENTRICITY":0.0008494,"INCLINATION":88.9901,"RA_OF_ASC_NODE":338.1667,"ARG_OF_PERICENTER":2.526,"MEAN_ANOMALY":357.5934,"EPHEMERIS_TYPE":0,"NORAD_CAT_ID":69081,"ELEMENT_SET_NO":999,"REV_AT_EPOCH":953,"BSTAR":0.000046829,"MEAN_MOTION_DOT":4.4e-7,"MEAN_MOTION_DDOT":0},{"OBJECT_NAME":"QIANFAN-136","OBJECT_ID":"2026-104K","EPOCH":"2026-07-19T12:51:44.963712","CLASSIFICATION_TYPE":"U","MEAN_MOTION":13.5159116,"ECCENTRICITY":0.0008123,"INCLINATION":88.9898,"RA_OF_ASC_NODE":338.1831,"ARG_OF_PERICENTER":8.3738,"MEAN_ANOMALY":351.7547,"EPHEMERIS_TYPE":0,"NORAD_CAT_ID":69082,"ELEMENT_SET_NO":999,"REV_AT_EPOCH":951,"BSTAR":-2.2438,"MEAN_MOTION_DOT":-0.0137623,"MEAN_MOTION_DDOT":0},{"OBJECT_NAME":"QIANFAN-137","OBJECT_ID":"2026-104L","EPOCH":"2026-07-19T05:04:12.686016","CLASSIFICATION_TYPE":"U","MEAN_MOTION":13.53795014,"ECCENTRICITY":0.0014191,"INCLINATION":88.9907,"RA_OF_ASC_NODE":338.0993,"ARG_OF_PERICENTER":27.3072,"MEAN_ANOMALY":332.8824,"EPHEMERIS_TYPE":0,"NORAD_CAT_ID":69083,"ELEMENT_SET_NO":999,"REV_AT_EPOCH":953,"BSTAR":-2.8928,"MEAN_MOTION_DOT":-0.01823573,"MEAN_MOTION_DDOT":0},{"OBJECT_NAME":"QIANFAN-138","OBJECT_ID":"2026-104M","EPOCH":"2026-07-18T01:45:38.177856","CLASSIFICATION_TYPE":"U","MEAN_MOTION":13.49102339,"ECCENTRICITY":0.00076114,"INCLINATION":88.9882,"RA_OF_ASC_NODE":338.3358,"ARG_OF_PERICENTER":346.7774,"MEAN_ANOMALY":13.3175,"EPHEMERIS_TYPE":0,"NORAD_CAT_ID":69084,"ELEMENT_SET_NO":999,"REV_AT_EPOCH":931,"BSTAR":-3.5630011,"MEAN_MOTION_DOT":-0.02089634,"MEAN_MOTION_DDOT":0}]}
